start=new Date('2021-12-20T00:00:00.000Z').valueOf();
sats=[{"TLE_LINE1":"1 48329U 21036BF  21353.84457105  .00000864  00000-0  76949-4 0  9993","TLE_LINE2":"2 48329  53.0547 178.7385 0002438  85.7256 274.4012 15.06392739 35790","BSTAR":"0.00007694900000","COUNTRY_CODE":"US","SITE":"AFETR","ELEMENT_SET_NO":"999","MEAN_MOTION":"15.06392739","FILE":"3244825","RA_OF_ASC_NODE":"178.7385","CENTER_NAME":"EARTH","GP_ID":"192041866","PERIOD":"95.593","OBJECT_NAME":"STARLINK-2510","DECAY_DATE":null,"MEAN_MOTION_DOT":"0.00000864","MEAN_ANOMALY":"274.4012","LAUNCH_DATE":"2021-04-29","INCLINATION":"53.0547","MEAN_ELEMENT_THEORY":"SGP4","NORAD_CAT_ID":"48329","REF_FRAME":"TEME","APOAPSIS":"548.924","OBJECT_TYPE":"PAYLOAD","EPHEMERIS_TYPE":"0","REV_AT_EPOCH":"3579","OBJECT_ID":"2021-036BF","ARG_OF_PERICENTER":"85.7256","ECCENTRICITY":"0.00024380","TIME_SYSTEM":"UTC","RCS_SIZE":"LARGE","PERIAPSIS":"545.547","CLASSIFICATION_TYPE":"U","SEMIMAJOR_AXIS":"6925.371","EPOCH":"2021-12-19T20:16:10.938720","MEAN_MOTION_DDOT":"0.0000000000000"},{"SEMIMAJOR_AXIS":"6925.366","PERIAPSIS":"545.290","CLASSIFICATION_TYPE":"U","MEAN_MOTION_DDOT":"0.0000000000000","EPOCH":"2021-12-19T20:10:52.540896","REV_AT_EPOCH":"3579","EPHEMERIS_TYPE":"0","RCS_SIZE":"LARGE","TIME_SYSTEM":"UTC","ECCENTRICITY":"0.00028030","ARG_OF_PERICENTER":"87.9198","OBJECT_ID":"2021-036BG","REF_FRAME":"TEME","NORAD_CAT_ID":"48330","OBJECT_TYPE":"PAYLOAD","APOAPSIS":"549.172","MEAN_ANOMALY":"272.2112","LAUNCH_DATE":"2021-04-29","MEAN_ELEMENT_THEORY":"SGP4","INCLINATION":"53.0551","OBJECT_NAME":"STARLINK-2501","PERIOD":"95.593","CENTER_NAME":"EARTH","GP_ID":"192040614","DECAY_DATE":null,"MEAN_MOTION_DOT":"0.00001135","MEAN_MOTION":"15.06394304","ELEMENT_SET_NO":"999","RA_OF_ASC_NODE":"178.7629","FILE":"3244825","BSTAR":"0.00009511600000","COUNTRY_CODE":"US","SITE":"AFETR","TLE_LINE1":"1 48330U 21036BG  21353.84088589  .00001135  00000-0  95116-4 0  9990","TLE_LINE2":"2 48330  53.0551 178.7629 0002803  87.9198 272.2112 15.06394304 35790"},{"RA_OF_ASC_NODE":"178.4739","FILE":"3244825","MEAN_MOTION":"15.06412240","ELEMENT_SET_NO":"999","MEAN_MOTION_DOT":"0.00001428","DECAY_DATE":null,"OBJECT_NAME":"STARLINK-2514","PERIOD":"95.591","CENTER_NAME":"EARTH","GP_ID":"192040864","TLE_LINE2":"2 48331  53.0548 178.4739 0002585  86.6064 273.5220 15.06412240 35807","TLE_LINE1":"1 48331U 21036BH  21353.90353278  .00001428  00000-0  11472-3 0  9995","SITE":"AFETR","COUNTRY_CODE":"US","BSTAR":"0.00011472000000","RCS_SIZE":"LARGE","ECCENTRICITY":"0.00025850","OBJECT_ID":"2021-036BH","TIME_SYSTEM":"UTC","ARG_OF_PERICENTER":"86.6064","REV_AT_EPOCH":"3580","EPHEMERIS_TYPE":"0","MEAN_MOTION_DDOT":"0.0000000000000","EPOCH":"2021-12-19T21:41:05.232192","SEMIMAJOR_AXIS":"6925.311","PERIAPSIS":"545.386","CLASSIFICATION_TYPE":"U","INCLINATION":"53.0548","LAUNCH_DATE":"2021-04-29","MEAN_ELEMENT_THEORY":"SGP4","MEAN_ANOMALY":"273.5220","OBJECT_TYPE":"PAYLOAD","APOAPSIS":"548.966","REF_FRAME":"TEME","NORAD_CAT_ID":"48331"},{"SITE":"AFETR","COUNTRY_CODE":"US","BSTAR":"0.00014721000000","TLE_LINE2":"2 48332  53.0523 178.4930 0002382  86.5293 273.5968 15.06406197 35805","TLE_LINE1":"1 48332U 21036BJ  21353.90260118  .00001912  00000-0  14721-3 0  9994","MEAN_MOTION_DOT":"0.00001912","DECAY_DATE":null,"CENTER_NAME":"EARTH","GP_ID":"192041616","OBJECT_NAME":"STARLINK-2511","PERIOD":"95.592","RA_OF_ASC_NODE":"178.4930","FILE":"3244825","ELEMENT_SET_NO":"999","MEAN_MOTION":"15.06406197","OBJECT_TYPE":"PAYLOAD","APOAPSIS":"548.844","REF_FRAME":"TEME","NORAD_CAT_ID":"48332","INCLINATION":"53.0523","LAUNCH_DATE":"2021-04-29","MEAN_ELEMENT_THEORY":"SGP4","MEAN_ANOMALY":"273.5968","EPOCH":"2021-12-19T21:39:44.741952","MEAN_MOTION_DDOT":"0.0000000000000","PERIAPSIS":"545.545","CLASSIFICATION_TYPE":"U","SEMIMAJOR_AXIS":"6925.330","TIME_SYSTEM":"UTC","ECCENTRICITY":"0.00023820","OBJECT_ID":"2021-036BJ","ARG_OF_PERICENTER":"86.5293","RCS_SIZE":"LARGE","EPHEMERIS_TYPE":"0","REV_AT_EPOCH":"3580"},{"FILE":"3244825","RA_OF_ASC_NODE":"178.5134","MEAN_MOTION":"15.06393283","ELEMENT_SET_NO":"999","DECAY_DATE":null,"MEAN_MOTION_DOT":"0.00001533","PERIOD":"95.593","OBJECT_NAME":"STARLINK-2518","CENTER_NAME":"EARTH","GP_ID":"192041366","TLE_LINE2":"2 48333  53.0527 178.5134 0002562  83.3915 276.7366 15.06393283 35801","TLE_LINE1":"1 48333U 21036BK  21353.89617328  .00001533  00000-0  12182-3 0  9990","SITE":"AFETR","BSTAR":"0.00012182000000","COUNTRY_CODE":"US","RCS_SIZE":"LARGE","OBJECT_ID":"2021-036BK","ECCENTRICITY":"0.00025620","TIME_SYSTEM":"UTC","ARG_OF_PERICENTER":"83.3915","REV_AT_EPOCH":"3580","EPHEMERIS_TYPE":"0","MEAN_MOTION_DDOT":"0.0000000000000","EPOCH":"2021-12-19T21:30:29.371392","SEMIMAJOR_AXIS":"6925.369","PERIAPSIS":"545.460","CLASSIFICATION_TYPE":"U","MEAN_ELEMENT_THEORY":"SGP4","LAUNCH_DATE":"2021-04-29","INCLINATION":"53.0527","MEAN_ANOMALY":"276.7366","APOAPSIS":"549.008","OBJECT_TYPE":"PAYLOAD","NORAD_CAT_ID":"48333","REF_FRAME":"TEME"},{"ELEMENT_SET_NO":"999","MEAN_MOTION":"15.06400253","RA_OF_ASC_NODE":"178.8283","FILE":"3244825","GP_ID":"192040114","CENTER_NAME":"EARTH","OBJECT_NAME":"STARLINK-2470","PERIOD":"95.592","MEAN_MOTION_DOT":"0.00000310","DECAY_DATE":null,"TLE_LINE1":"1 48334U 21036BL  21353.82614254  .00000310  00000-0  39741-4 0  9992","TLE_LINE2":"2 48334  53.0528 178.8283 0002269  87.9612 272.1636 15.06400253 35793","BSTAR":"0.00003974100000","COUNTRY_CODE":"US","SITE":"AFETR","EPHEMERIS_TYPE":"0","REV_AT_EPOCH":"3579","TIME_SYSTEM":"UTC","ARG_OF_PERICENTER":"87.9612","ECCENTRICITY":"0.00022690","OBJECT_ID":"2021-036BL","RCS_SIZE":"LARGE","PERIAPSIS":"545.641","CLASSIFICATION_TYPE":"U","SEMIMAJOR_AXIS":"6925.348","EPOCH":"2021-12-19T19:49:38.715456","MEAN_MOTION_DDOT":"0.0000000000000","MEAN_ANOMALY":"272.1636","INCLINATION":"53.0528","LAUNCH_DATE":"2021-04-29","MEAN_ELEMENT_THEORY":"SGP4","REF_FRAME":"TEME","NORAD_CAT_ID":"48334","OBJECT_TYPE":"PAYLOAD","APOAPSIS":"548.784"},{"RA_OF_ASC_NODE":"178.8475","FILE":"3244825","MEAN_MOTION":"15.06394093","ELEMENT_SET_NO":"999","DECAY_DATE":null,"MEAN_MOTION_DOT":"-0.00001099","OBJECT_NAME":"STARLINK-2441","PERIOD":"95.593","GP_ID":"192040364","CENTER_NAME":"EARTH","TLE_LINE2":"2 48335  53.0541 178.8475 0002528  86.4069 273.7209 15.06394093 35797","TLE_LINE1":"1 48335U 21036BM  21353.82245373 -.00001099  00000-0 -54862-4 0  9993","SITE":"AFETR","COUNTRY_CODE":"US","BSTAR":"-0.00005486200000","RCS_SIZE":"LARGE","OBJECT_ID":"2021-036BM","TIME_SYSTEM":"UTC","ECCENTRICITY":"0.00025280","ARG_OF_PERICENTER":"86.4069","REV_AT_EPOCH":"3579","EPHEMERIS_TYPE":"0","MEAN_MOTION_DDOT":"0.0000000000000","EPOCH":"2021-12-19T19:44:20.002272","SEMIMAJOR_AXIS":"6925.367","CLASSIFICATION_TYPE":"U","PERIAPSIS":"545.481","LAUNCH_DATE":"2021-04-29","INCLINATION":"53.0541","MEAN_ELEMENT_THEORY":"SGP4","MEAN_ANOMALY":"273.7209","OBJECT_TYPE":"PAYLOAD","APOAPSIS":"548.982","REF_FRAME":"TEME","NORAD_CAT_ID":"48335"},{"TLE_LINE2":"2 48353  53.0555  79.1200 0001327  98.5807 261.5333 15.06404515 34772","TLE_LINE1":"1 48353U 21038A   21353.76161779  .00000638  00000-0  61685-4 0  9992","SITE":"AFETR","COUNTRY_CODE":"US","BSTAR":"0.00006168500000","FILE":"3244825","RA_OF_ASC_NODE":"79.1200","MEAN_MOTION":"15.06404515","ELEMENT_SET_NO":"999","MEAN_MOTION_DOT":"0.00000638","DECAY_DATE":null,"PERIOD":"95.592","OBJECT_NAME":"STARLINK-2613","CENTER_NAME":"EARTH","GP_ID":"192041368","LAUNCH_DATE":"2021-05-04","INCLINATION":"53.0555","MEAN_ELEMENT_THEORY":"SGP4","MEAN_ANOMALY":"261.5333","APOAPSIS":"548.119","OBJECT_TYPE":"PAYLOAD","NORAD_CAT_ID":"48353","REF_FRAME":"TEME","RCS_SIZE":"LARGE","ECCENTRICITY":"0.00013270","TIME_SYSTEM":"UTC","OBJECT_ID":"2021-038A","ARG_OF_PERICENTER":"98.5807","REV_AT_EPOCH":"3477","EPHEMERIS_TYPE":"0","MEAN_MOTION_DDOT":"0.0000000000000","EPOCH":"2021-12-19T18:16:43.777056","SEMIMAJOR_AXIS":"6925.335","PERIAPSIS":"546.281","CLASSIFICATION_TYPE":"U"},{"MEAN_MOTION":"15.06393250","ELEMENT_SET_NO":"999","RA_OF_ASC_NODE":"79.7222","FILE":"3244825","OBJECT_NAME":"STARLINK-2674","PERIOD":"95.593","GP_ID":"192040116","CENTER_NAME":"EARTH","DECAY_DATE":null,"MEAN_MOTION_DOT":"0.00000833","TLE_LINE1":"1 48354U 21038B   21353.62523879  .00000833  00000-0  74850-4 0  9996","TLE_LINE2":"2 48354  53.0561  79.7222 0001426  93.7552 266.3600 15.06393250 34755","BSTAR":"0.00007485000000","COUNTRY_CODE":"US","SITE":"AFETR","REV_AT_EPOCH":"3475","EPHEMERIS_TYPE":"0","RCS_SIZE":"LARGE","ARG_OF_PERICENTER":"93.7552","ECCENTRICITY":"0.00014260","TIME_SYSTEM":"UTC","OBJECT_ID":"2021-038B","SEMIMAJOR_AXIS":"6925.369","PERIAPSIS":"546.247","CLASSIFICATION_TYPE":"U","MEAN_MOTION_DDOT":"0.0000000000000","EPOCH":"2021-12-19T15:00:20.631456","MEAN_ANOMALY":"266.3600","MEAN_ELEMENT_THEORY":"SGP4","LAUNCH_DATE":"2021-05-04","INCLINATION":"53.0561","REF_FRAME":"TEME","NORAD_CAT_ID":"48354","OBJECT_TYPE":"PAYLOAD","APOAPSIS":"548.222"},{"REV_AT_EPOCH":"3477","EPHEMERIS_TYPE":"0","RCS_SIZE":"LARGE","TIME_SYSTEM":"UTC","ECCENTRICITY":"0.00012570","OBJECT_ID":"2021-038C","ARG_OF_PERICENTER":"98.1346","SEMIMAJOR_AXIS":"6925.331","PERIAPSIS":"546.325","CLASSIFICATION_TYPE":"U","MEAN_MOTION_DDOT":"0.0000000000000","EPOCH":"2021-12-19T18:06:06.737760","MEAN_ANOMALY":"261.9785","LAUNCH_DATE":"2021-05-04","INCLINATION":"53.0567","MEAN_ELEMENT_THEORY":"SGP4","REF_FRAME":"TEME","NORAD_CAT_ID":"48355","OBJECT_TYPE":"PAYLOAD","APOAPSIS":"548.067","MEAN_MOTION":"15.06405733","ELEMENT_SET_NO":"999","RA_OF_ASC_NODE":"79.1538","FILE":"3244825","OBJECT_NAME":"STARLINK-2635","PERIOD":"95.592","GP_ID":"192040366","CENTER_NAME":"EARTH","MEAN_MOTION_DOT":"0.00000464","DECAY_DATE":null,"TLE_LINE1":"1 48355U 21038C   21353.75424465  .00000464  00000-0  50054-4 0  9992","TLE_LINE2":"2 48355  53.0567  79.1538 0001257  98.1346 261.9785 15.06405733 34775","COUNTRY_CODE":"US","BSTAR":"0.00005005400000","SITE":"AFETR"}];
